{"type": "FeatureCollection", "features": [{"type": "Feature", "geometry": {"type": "Point", "coordinates": [-57.681276, -38.057764]}, "properties": {"sector": "Bosque de eucaliptos", "icono": "sector_eucaliptos", "color": "#7B9E5A"}}, {"type": "Feature", "geometry": {"type": "Point", "coordinates": [-57.68147, -38.057647]}, "properties": {"sector": "Bosque de eucaliptos", "icono": "sector_eucaliptos", "color": "#7B9E5A"}}, {"type": "Feature", "geometry": {"type": "Point", "coordinates": [-57.681327, -38.057661]}, "properties": {"sector": "Bosque de eucaliptos", "icono": "sector_eucaliptos", "color": "#7B9E5A"}}, {"type": "Feature", "geometry": {"type": "Point", "coordinates": [-57.681573, -38.057573]}, "properties": {"sector": "Bosque de eucaliptos", "icono": "sector_eucaliptos", "color": "#7B9E5A"}}, {"type": "Feature", "geometry": {"type": "Point", "coordinates": [-57.68143, -38.057566]}, "properties": {"sector": "Bosque de eucaliptos", "icono": "sector_eucaliptos", "color": "#7B9E5A"}}, {"type": "Feature", "geometry": {"type": "Point", "coordinates": [-57.681494, -38.05744]}, "properties": {"sector": "Bosque de eucaliptos", "icono": "sector_eucaliptos", "color": "#7B9E5A"}}, {"type": "Feature", "geometry": {"type": "Point", "coordinates": [-57.678868, -38.058544]}, "properties": {"sector": "Pinar", "icono": "sector_pinar", "color": "#2E6B4F"}}, {"type": "Feature", "geometry": {"type": "Point", "coordinates": [-57.678788, -38.058437]}, "properties": {"sector": "Pinar", "icono": "sector_pinar", "color": "#2E6B4F"}}, {"type": "Feature", "geometry": {"type": "Point", "coordinates": [-57.678671, -38.058458]}, "properties": {"sector": "Pinar", "icono": "sector_pinar", "color": "#2E6B4F"}}, {"type": "Feature", "geometry": {"type": "Point", "coordinates": [-57.678591, -38.058341]}, "properties": {"sector": "Pinar", "icono": "sector_pinar", "color": "#2E6B4F"}}, {"type": "Feature", "geometry": {"type": "Point", "coordinates": [-57.678426, -38.058347]}, "properties": {"sector": "Pinar", "icono": "sector_pinar", "color": "#2E6B4F"}}, {"type": "Feature", "geometry": {"type": "Point", "coordinates": [-57.678318, -38.058234]}, "properties": {"sector": "Pinar", "icono": "sector_pinar", "color": "#2E6B4F"}}, {"type": "Feature", "geometry": {"type": "Point", "coordinates": [-57.678248, -38.058103]}, "properties": {"sector": "Pinar", "icono": "sector_pinar", "color": "#2E6B4F"}}, {"type": "Feature", "geometry": {"type": "Point", "coordinates": [-57.678176, -38.058023]}, "properties": {"sector": "Pinar", "icono": "sector_pinar", "color": "#2E6B4F"}}, {"type": "Feature", "geometry": {"type": "Point", "coordinates": [-57.680234, -38.056439]}, "properties": {"sector": "Bosque de eucaliptos", "icono": "sector_eucaliptos", "color": "#7B9E5A"}}, {"type": "Feature", "geometry": {"type": "Point", "coordinates": [-57.680317, -38.056328]}, "properties": {"sector": "Bosque de eucaliptos", "icono": "sector_eucaliptos", "color": "#7B9E5A"}}, {"type": "Feature", "geometry": {"type": "Point", "coordinates": [-57.680162, -38.056348]}, "properties": {"sector": "Bosque de eucaliptos", "icono": "sector_eucaliptos", "color": "#7B9E5A"}}, {"type": "Feature", "geometry": {"type": "Point", "coordinates": [-57.679978, -38.056323]}, "properties": {"sector": "Bosque de eucaliptos", "icono": "sector_eucaliptos", "color": "#7B9E5A"}}, {"type": "Feature", "geometry": {"type": "Point", "coordinates": [-57.680245, -38.056236]}, "properties": {"sector": "Bosque de eucaliptos", "icono": "sector_eucaliptos", "color": "#7B9E5A"}}, {"type": "Feature", "geometry": {"type": "Point", "coordinates": [-57.680064, -38.056244]}, "properties": {"sector": "Bosque de eucaliptos", "icono": "sector_eucaliptos", "color": "#7B9E5A"}}, {"type": "Feature", "geometry": {"type": "Point", "coordinates": [-57.679917, -38.056232]}, "properties": {"sector": "Bosque de eucaliptos", "icono": "sector_eucaliptos", "color": "#7B9E5A"}}, {"type": "Feature", "geometry": {"type": "Point", "coordinates": [-57.681877, -38.056453]}, "properties": {"sector": "Bosque de eucaliptos", "icono": "sector_eucaliptos", "color": "#7B9E5A"}}, {"type": "Feature", "geometry": {"type": "Point", "coordinates": [-57.681724, -38.056418]}, "properties": {"sector": "Bosque de eucaliptos", "icono": "sector_eucaliptos", "color": "#7B9E5A"}}, {"type": "Feature", "geometry": {"type": "Point", "coordinates": [-57.68153, -38.056416]}, "properties": {"sector": "Bosque de eucaliptos", "icono": "sector_eucaliptos", "color": "#7B9E5A"}}, {"type": "Feature", "geometry": {"type": "Point", "coordinates": [-57.681789, -38.056304]}, "properties": {"sector": "Bosque de eucaliptos", "icono": "sector_eucaliptos", "color": "#7B9E5A"}}, {"type": "Feature", "geometry": {"type": "Point", "coordinates": [-57.681641, -38.056322]}, "properties": {"sector": "Bosque de eucaliptos", "icono": "sector_eucaliptos", "color": "#7B9E5A"}}, {"type": "Feature", "geometry": {"type": "Point", "coordinates": [-57.681448, -38.056308]}, "properties": {"sector": "Bosque de eucaliptos", "icono": "sector_eucaliptos", "color": "#7B9E5A"}}, {"type": "Feature", "geometry": {"type": "Point", "coordinates": [-57.681685, -38.056197]}, "properties": {"sector": "Bosque de eucaliptos", "icono": "sector_eucaliptos", "color": "#7B9E5A"}}, {"type": "Feature", "geometry": {"type": "Point", "coordinates": [-57.681547, -38.056207]}, "properties": {"sector": "Bosque de eucaliptos", "icono": "sector_eucaliptos", "color": "#7B9E5A"}}, {"type": "Feature", "geometry": {"type": "Point", "coordinates": [-57.68136, -38.056199]}, "properties": {"sector": "Bosque de eucaliptos", "icono": "sector_eucaliptos", "color": "#7B9E5A"}}, {"type": "Feature", "geometry": {"type": "Point", "coordinates": [-57.681613, -38.056108]}, "properties": {"sector": "Bosque de eucaliptos", "icono": "sector_eucaliptos", "color": "#7B9E5A"}}, {"type": "Feature", "geometry": {"type": "Point", "coordinates": [-57.681456, -38.056099]}, "properties": {"sector": "Bosque de eucaliptos", "icono": "sector_eucaliptos", "color": "#7B9E5A"}}, {"type": "Feature", "geometry": {"type": "Point", "coordinates": [-57.68197, -38.05718]}, "properties": {"sector": "Sauces y bajo", "icono": "sector_sauces", "color": "#5E97A8"}}, {"type": "Feature", "geometry": {"type": "Point", "coordinates": [-57.681828, -38.057184]}, "properties": {"sector": "Sauces y bajo", "icono": "sector_sauces", "color": "#5E97A8"}}, {"type": "Feature", "geometry": {"type": "Point", "coordinates": [-57.682048, -38.057094]}, "properties": {"sector": "Sauces y bajo", "icono": "sector_sauces", "color": "#5E97A8"}}, {"type": "Feature", "geometry": {"type": "Point", "coordinates": [-57.681877, -38.057084]}, "properties": {"sector": "Sauces y bajo", "icono": "sector_sauces", "color": "#5E97A8"}}, {"type": "Feature", "geometry": {"type": "Point", "coordinates": [-57.682121, -38.056957]}, "properties": {"sector": "Sauces y bajo", "icono": "sector_sauces", "color": "#5E97A8"}}, {"type": "Feature", "geometry": {"type": "Point", "coordinates": [-57.681979, -38.056993]}, "properties": {"sector": "Sauces y bajo", "icono": "sector_sauces", "color": "#5E97A8"}}, {"type": "Feature", "geometry": {"type": "Point", "coordinates": [-57.682732, -38.056682]}, "properties": {"sector": "Robledal", "icono": "sector_robledal", "color": "#B06A2E"}}, {"type": "Feature", "geometry": {"type": "Point", "coordinates": [-57.682796, -38.056581]}, "properties": {"sector": "Robledal", "icono": "sector_robledal", "color": "#B06A2E"}}, {"type": "Feature", "geometry": {"type": "Point", "coordinates": [-57.683042, -38.056448]}, "properties": {"sector": "Robledal", "icono": "sector_robledal", "color": "#B06A2E"}}, {"type": "Feature", "geometry": {"type": "Point", "coordinates": [-57.683102, -38.056349]}, "properties": {"sector": "Robledal", "icono": "sector_robledal", "color": "#B06A2E"}}, {"type": "Feature", "geometry": {"type": "Point", "coordinates": [-57.683176, -38.056252]}, "properties": {"sector": "Robledal", "icono": "sector_robledal", "color": "#B06A2E"}}, {"type": "Feature", "geometry": {"type": "Point", "coordinates": [-57.683103, -38.056143]}, "properties": {"sector": "Robledal", "icono": "sector_robledal", "color": "#B06A2E"}}, {"type": "Feature", "geometry": {"type": "Point", "coordinates": [-57.682954, -38.056144]}, "properties": {"sector": "Robledal", "icono": "sector_robledal", "color": "#B06A2E"}}, {"type": "Feature", "geometry": {"type": "Point", "coordinates": [-57.682867, -38.056011]}, "properties": {"sector": "Robledal", "icono": "sector_robledal", "color": "#B06A2E"}}, {"type": "Feature", "geometry": {"type": "Point", "coordinates": [-57.682719, -38.056009]}, "properties": {"sector": "Robledal", "icono": "sector_robledal", "color": "#B06A2E"}}, {"type": "Feature", "geometry": {"type": "Point", "coordinates": [-57.682787, -38.055894]}, "properties": {"sector": "Robledal", "icono": "sector_robledal", "color": "#B06A2E"}}, {"type": "Feature", "geometry": {"type": "Point", "coordinates": [-57.68264, -38.055908]}, "properties": {"sector": "Robledal", "icono": "sector_robledal", "color": "#B06A2E"}}, {"type": "Feature", "geometry": {"type": "Point", "coordinates": [-57.683366, -38.056001]}, "properties": {"sector": "Robledal", "icono": "sector_robledal", "color": "#B06A2E"}}, {"type": "Feature", "geometry": {"type": "Point", "coordinates": [-57.683146, -38.055887]}, "properties": {"sector": "Robledal", "icono": "sector_robledal", "color": "#B06A2E"}}, {"type": "Feature", "geometry": {"type": "Point", "coordinates": [-57.683238, -38.055796]}, "properties": {"sector": "Robledal", "icono": "sector_robledal", "color": "#B06A2E"}}, {"type": "Feature", "geometry": {"type": "Point", "coordinates": [-57.683055, -38.055783]}, "properties": {"sector": "Robledal", "icono": "sector_robledal", "color": "#B06A2E"}}, {"type": "Feature", "geometry": {"type": "Point", "coordinates": [-57.683122, -38.055696]}, "properties": {"sector": "Robledal", "icono": "sector_robledal", "color": "#B06A2E"}}, {"type": "Feature", "geometry": {"type": "Point", "coordinates": [-57.683994, -38.055607]}, "properties": {"sector": "Bosque de eucaliptos", "icono": "sector_eucaliptos", "color": "#7B9E5A"}}, {"type": "Feature", "geometry": {"type": "Point", "coordinates": [-57.683824, -38.055605]}, "properties": {"sector": "Bosque de eucaliptos", "icono": "sector_eucaliptos", "color": "#7B9E5A"}}, {"type": "Feature", "geometry": {"type": "Point", "coordinates": [-57.683898, -38.055497]}, "properties": {"sector": "Bosque de eucaliptos", "icono": "sector_eucaliptos", "color": "#7B9E5A"}}, {"type": "Feature", "geometry": {"type": "Point", "coordinates": [-57.683767, -38.055486]}, "properties": {"sector": "Bosque de eucaliptos", "icono": "sector_eucaliptos", "color": "#7B9E5A"}}, {"type": "Feature", "geometry": {"type": "Point", "coordinates": [-57.683683, -38.055395]}, "properties": {"sector": "Bosque de eucaliptos", "icono": "sector_eucaliptos", "color": "#7B9E5A"}}, {"type": "Feature", "geometry": {"type": "Point", "coordinates": [-57.683538, -38.055383]}, "properties": {"sector": "Bosque de eucaliptos", "icono": "sector_eucaliptos", "color": "#7B9E5A"}}, {"type": "Feature", "geometry": {"type": "Point", "coordinates": [-57.683615, -38.055289]}, "properties": {"sector": "Bosque de eucaliptos", "icono": "sector_eucaliptos", "color": "#7B9E5A"}}, {"type": "Feature", "geometry": {"type": "Point", "coordinates": [-57.683441, -38.05528]}, "properties": {"sector": "Bosque de eucaliptos", "icono": "sector_eucaliptos", "color": "#7B9E5A"}}, {"type": "Feature", "geometry": {"type": "Point", "coordinates": [-57.68351, -38.055155]}, "properties": {"sector": "Bosque de eucaliptos", "icono": "sector_eucaliptos", "color": "#7B9E5A"}}, {"type": "Feature", "geometry": {"type": "Point", "coordinates": [-57.683342, -38.055174]}, "properties": {"sector": "Bosque de eucaliptos", "icono": "sector_eucaliptos", "color": "#7B9E5A"}}, {"type": "Feature", "geometry": {"type": "Point", "coordinates": [-57.683307, -38.055069]}, "properties": {"sector": "Bosque de eucaliptos", "icono": "sector_eucaliptos", "color": "#7B9E5A"}}, {"type": "Feature", "geometry": {"type": "Point", "coordinates": [-57.683199, -38.054961]}, "properties": {"sector": "Bosque de eucaliptos", "icono": "sector_eucaliptos", "color": "#7B9E5A"}}, {"type": "Feature", "geometry": {"type": "Point", "coordinates": [-57.683059, -38.054958]}, "properties": {"sector": "Bosque de eucaliptos", "icono": "sector_eucaliptos", "color": "#7B9E5A"}}, {"type": "Feature", "geometry": {"type": "Point", "coordinates": [-57.683113, -38.054823]}, "properties": {"sector": "Bosque de eucaliptos", "icono": "sector_eucaliptos", "color": "#7B9E5A"}}, {"type": "Feature", "geometry": {"type": "Point", "coordinates": [-57.682979, -38.054838]}, "properties": {"sector": "Bosque de eucaliptos", "icono": "sector_eucaliptos", "color": "#7B9E5A"}}, {"type": "Feature", "geometry": {"type": "Point", "coordinates": [-57.682571, -38.054463]}, "properties": {"sector": "Bosque de eucaliptos", "icono": "sector_eucaliptos", "color": "#7B9E5A"}}, {"type": "Feature", "geometry": {"type": "Point", "coordinates": [-57.682447, -38.054458]}, "properties": {"sector": "Bosque de eucaliptos", "icono": "sector_eucaliptos", "color": "#7B9E5A"}}, {"type": "Feature", "geometry": {"type": "Point", "coordinates": [-57.682523, -38.054366]}, "properties": {"sector": "Bosque de eucaliptos", "icono": "sector_eucaliptos", "color": "#7B9E5A"}}, {"type": "Feature", "geometry": {"type": "Point", "coordinates": [-57.68238, -38.05437]}, "properties": {"sector": "Bosque de eucaliptos", "icono": "sector_eucaliptos", "color": "#7B9E5A"}}, {"type": "Feature", "geometry": {"type": "Point", "coordinates": [-57.68241, -38.054249]}, "properties": {"sector": "Bosque de eucaliptos", "icono": "sector_eucaliptos", "color": "#7B9E5A"}}, {"type": "Feature", "geometry": {"type": "Point", "coordinates": [-57.682265, -38.054244]}, "properties": {"sector": "Bosque de eucaliptos", "icono": "sector_eucaliptos", "color": "#7B9E5A"}}, {"type": "Feature", "geometry": {"type": "Point", "coordinates": [-57.682172, -38.054141]}, "properties": {"sector": "Bosque de eucaliptos", "icono": "sector_eucaliptos", "color": "#7B9E5A"}}, {"type": "Feature", "geometry": {"type": "Point", "coordinates": [-57.682011, -38.054139]}, "properties": {"sector": "Bosque de eucaliptos", "icono": "sector_eucaliptos", "color": "#7B9E5A"}}, {"type": "Feature", "geometry": {"type": "Point", "coordinates": [-57.68211, -38.054052]}, "properties": {"sector": "Bosque de eucaliptos", "icono": "sector_eucaliptos", "color": "#7B9E5A"}}, {"type": "Feature", "geometry": {"type": "Point", "coordinates": [-57.681934, -38.054037]}, "properties": {"sector": "Bosque de eucaliptos", "icono": "sector_eucaliptos", "color": "#7B9E5A"}}, {"type": "Feature", "geometry": {"type": "Point", "coordinates": [-57.682053, -38.053914]}, "properties": {"sector": "Bosque de eucaliptos", "icono": "sector_eucaliptos", "color": "#7B9E5A"}}, {"type": "Feature", "geometry": {"type": "Point", "coordinates": [-57.681882, -38.053908]}, "properties": {"sector": "Bosque de eucaliptos", "icono": "sector_eucaliptos", "color": "#7B9E5A"}}, {"type": "Feature", "geometry": {"type": "Point", "coordinates": [-57.681955, -38.053796]}, "properties": {"sector": "Bosque de eucaliptos", "icono": "sector_eucaliptos", "color": "#7B9E5A"}}, {"type": "Feature", "geometry": {"type": "Point", "coordinates": [-57.681785, -38.053815]}, "properties": {"sector": "Bosque de eucaliptos", "icono": "sector_eucaliptos", "color": "#7B9E5A"}}, {"type": "Feature", "geometry": {"type": "Point", "coordinates": [-57.681613, -38.053801]}, "properties": {"sector": "Bosque de eucaliptos", "icono": "sector_eucaliptos", "color": "#7B9E5A"}}, {"type": "Feature", "geometry": {"type": "Point", "coordinates": [-57.681712, -38.053707]}, "properties": {"sector": "Bosque de eucaliptos", "icono": "sector_eucaliptos", "color": "#7B9E5A"}}, {"type": "Feature", "geometry": {"type": "Point", "coordinates": [-57.684433, -38.055412]}, "properties": {"sector": "Cortinas de ciprés", "icono": "sector_cipres", "color": "#3F7D63"}}, {"type": "Feature", "geometry": {"type": "Point", "coordinates": [-57.684278, -38.055409]}, "properties": {"sector": "Cortinas de ciprés", "icono": "sector_cipres", "color": "#3F7D63"}}, {"type": "Feature", "geometry": {"type": "Point", "coordinates": [-57.684501, -38.055289]}, "properties": {"sector": "Cortinas de ciprés", "icono": "sector_cipres", "color": "#3F7D63"}}, {"type": "Feature", "geometry": {"type": "Point", "coordinates": [-57.684385, -38.055322]}, "properties": {"sector": "Cortinas de ciprés", "icono": "sector_cipres", "color": "#3F7D63"}}, {"type": "Feature", "geometry": {"type": "Point", "coordinates": [-57.684596, -38.05521]}, "properties": {"sector": "Cortinas de ciprés", "icono": "sector_cipres", "color": "#3F7D63"}}, {"type": "Feature", "geometry": {"type": "Point", "coordinates": [-57.684688, -38.055085]}, "properties": {"sector": "Cortinas de ciprés", "icono": "sector_cipres", "color": "#3F7D63"}}, {"type": "Feature", "geometry": {"type": "Point", "coordinates": [-57.685127, -38.054744]}, "properties": {"sector": "Cortinas de ciprés", "icono": "sector_cipres", "color": "#3F7D63"}}, {"type": "Feature", "geometry": {"type": "Point", "coordinates": [-57.685332, -38.054665]}, "properties": {"sector": "Cortinas de ciprés", "icono": "sector_cipres", "color": "#3F7D63"}}, {"type": "Feature", "geometry": {"type": "Point", "coordinates": [-57.685437, -38.054552]}, "properties": {"sector": "Cortinas de ciprés", "icono": "sector_cipres", "color": "#3F7D63"}}, {"type": "Feature", "geometry": {"type": "Point", "coordinates": [-57.685644, -38.054411]}, "properties": {"sector": "Cortinas de ciprés", "icono": "sector_cipres", "color": "#3F7D63"}}, {"type": "Feature", "geometry": {"type": "Point", "coordinates": [-57.685724, -38.054302]}, "properties": {"sector": "Cortinas de ciprés", "icono": "sector_cipres", "color": "#3F7D63"}}, {"type": "Feature", "geometry": {"type": "Point", "coordinates": [-57.682601, -38.053321]}, "properties": {"sector": "Bosque de eucaliptos", "icono": "sector_eucaliptos", "color": "#7B9E5A"}}, {"type": "Feature", "geometry": {"type": "Point", "coordinates": [-57.682806, -38.053229]}, "properties": {"sector": "Bosque de eucaliptos", "icono": "sector_eucaliptos", "color": "#7B9E5A"}}, {"type": "Feature", "geometry": {"type": "Point", "coordinates": [-57.682689, -38.05322]}, "properties": {"sector": "Bosque de eucaliptos", "icono": "sector_eucaliptos", "color": "#7B9E5A"}}, {"type": "Feature", "geometry": {"type": "Point", "coordinates": [-57.682902, -38.053108]}, "properties": {"sector": "Bosque de eucaliptos", "icono": "sector_eucaliptos", "color": "#7B9E5A"}}, {"type": "Feature", "geometry": {"type": "Point", "coordinates": [-57.682721, -38.053105]}, "properties": {"sector": "Bosque de eucaliptos", "icono": "sector_eucaliptos", "color": "#7B9E5A"}}, {"type": "Feature", "geometry": {"type": "Point", "coordinates": [-57.684763, -38.05537]}, "properties": {"sector": "Cortinas de ciprés", "icono": "sector_cipres", "color": "#3F7D63"}}, {"type": "Feature", "geometry": {"type": "Point", "coordinates": [-57.684851, -38.055272]}, "properties": {"sector": "Cortinas de ciprés", "icono": "sector_cipres", "color": "#3F7D63"}}, {"type": "Feature", "geometry": {"type": "Point", "coordinates": [-57.685146, -38.055036]}, "properties": {"sector": "Cortinas de ciprés", "icono": "sector_cipres", "color": "#3F7D63"}}, {"type": "Feature", "geometry": {"type": "Point", "coordinates": [-57.685544, -38.054705]}, "properties": {"sector": "Cortinas de ciprés", "icono": "sector_cipres", "color": "#3F7D63"}}, {"type": "Feature", "geometry": {"type": "Point", "coordinates": [-57.685628, -38.054577]}, "properties": {"sector": "Cortinas de ciprés", "icono": "sector_cipres", "color": "#3F7D63"}}, {"type": "Feature", "geometry": {"type": "Point", "coordinates": [-57.680519, -38.055433]}, "properties": {"sector": "Bosque de eucaliptos", "icono": "sector_eucaliptos", "color": "#7B9E5A"}}, {"type": "Feature", "geometry": {"type": "Point", "coordinates": [-57.680349, -38.055424]}, "properties": {"sector": "Bosque de eucaliptos", "icono": "sector_eucaliptos", "color": "#7B9E5A"}}, {"type": "Feature", "geometry": {"type": "Point", "coordinates": [-57.6802, -38.055433]}, "properties": {"sector": "Bosque de eucaliptos", "icono": "sector_eucaliptos", "color": "#7B9E5A"}}, {"type": "Feature", "geometry": {"type": "Point", "coordinates": [-57.680469, -38.055332]}, "properties": {"sector": "Bosque de eucaliptos", "icono": "sector_eucaliptos", "color": "#7B9E5A"}}, {"type": "Feature", "geometry": {"type": "Point", "coordinates": [-57.680282, -38.055308]}, "properties": {"sector": "Bosque de eucaliptos", "icono": "sector_eucaliptos", "color": "#7B9E5A"}}, {"type": "Feature", "geometry": {"type": "Point", "coordinates": [-57.680148, -38.05532]}, "properties": {"sector": "Bosque de eucaliptos", "icono": "sector_eucaliptos", "color": "#7B9E5A"}}, {"type": "Feature", "geometry": {"type": "Point", "coordinates": [-57.685623, -38.05414]}, "properties": {"sector": "Cortinas de ciprés", "icono": "sector_cipres", "color": "#3F7D63"}}, {"type": "Feature", "geometry": {"type": "Point", "coordinates": [-57.685443, -38.054124]}, "properties": {"sector": "Cortinas de ciprés", "icono": "sector_cipres", "color": "#3F7D63"}}, {"type": "Feature", "geometry": {"type": "Point", "coordinates": [-57.685381, -38.054009]}, "properties": {"sector": "Cortinas de ciprés", "icono": "sector_cipres", "color": "#3F7D63"}}, {"type": "Feature", "geometry": {"type": "Point", "coordinates": [-57.685289, -38.053911]}, "properties": {"sector": "Cortinas de ciprés", "icono": "sector_cipres", "color": "#3F7D63"}}, {"type": "Feature", "geometry": {"type": "Point", "coordinates": [-57.685208, -38.053807]}, "properties": {"sector": "Cortinas de ciprés", "icono": "sector_cipres", "color": "#3F7D63"}}, {"type": "Feature", "geometry": {"type": "Point", "coordinates": [-57.68504, -38.053788]}, "properties": {"sector": "Cortinas de ciprés", "icono": "sector_cipres", "color": "#3F7D63"}}, {"type": "Feature", "geometry": {"type": "Point", "coordinates": [-57.685137, -38.053712]}, "properties": {"sector": "Cortinas de ciprés", "icono": "sector_cipres", "color": "#3F7D63"}}, {"type": "Feature", "geometry": {"type": "Point", "coordinates": [-57.684943, -38.053676]}, "properties": {"sector": "Cortinas de ciprés", "icono": "sector_cipres", "color": "#3F7D63"}}, {"type": "Feature", "geometry": {"type": "Point", "coordinates": [-57.684862, -38.053565]}, "properties": {"sector": "Cortinas de ciprés", "icono": "sector_cipres", "color": "#3F7D63"}}, {"type": "Feature", "geometry": {"type": "Point", "coordinates": [-57.684807, -38.053491]}, "properties": {"sector": "Cortinas de ciprés", "icono": "sector_cipres", "color": "#3F7D63"}}, {"type": "Feature", "geometry": {"type": "Point", "coordinates": [-57.684658, -38.053482]}, "properties": {"sector": "Cortinas de ciprés", "icono": "sector_cipres", "color": "#3F7D63"}}, {"type": "Feature", "geometry": {"type": "Point", "coordinates": [-57.684745, -38.053372]}, "properties": {"sector": "Cortinas de ciprés", "icono": "sector_cipres", "color": "#3F7D63"}}, {"type": "Feature", "geometry": {"type": "Point", "coordinates": [-57.684552, -38.053374]}, "properties": {"sector": "Cortinas de ciprés", "icono": "sector_cipres", "color": "#3F7D63"}}, {"type": "Feature", "geometry": {"type": "Point", "coordinates": [-57.684479, -38.053264]}, "properties": {"sector": "Cortinas de ciprés", "icono": "sector_cipres", "color": "#3F7D63"}}, {"type": "Feature", "geometry": {"type": "Point", "coordinates": [-57.684328, -38.053243]}, "properties": {"sector": "Cortinas de ciprés", "icono": "sector_cipres", "color": "#3F7D63"}}, {"type": "Feature", "geometry": {"type": "Point", "coordinates": [-57.684423, -38.053151]}, "properties": {"sector": "Cortinas de ciprés", "icono": "sector_cipres", "color": "#3F7D63"}}, {"type": "Feature", "geometry": {"type": "Point", "coordinates": [-57.684268, -38.053151]}, "properties": {"sector": "Cortinas de ciprés", "icono": "sector_cipres", "color": "#3F7D63"}}, {"type": "Feature", "geometry": {"type": "Point", "coordinates": [-57.684146, -38.053048]}, "properties": {"sector": "Cortinas de ciprés", "icono": "sector_cipres", "color": "#3F7D63"}}, {"type": "Feature", "geometry": {"type": "Point", "coordinates": [-57.684091, -38.052909]}, "properties": {"sector": "Cortinas de ciprés", "icono": "sector_cipres", "color": "#3F7D63"}}, {"type": "Feature", "geometry": {"type": "Point", "coordinates": [-57.683995, -38.052822]}, "properties": {"sector": "Cortinas de ciprés", "icono": "sector_cipres", "color": "#3F7D63"}}, {"type": "Feature", "geometry": {"type": "Point", "coordinates": [-57.683853, -38.052827]}, "properties": {"sector": "Cortinas de ciprés", "icono": "sector_cipres", "color": "#3F7D63"}}, {"type": "Feature", "geometry": {"type": "Point", "coordinates": [-57.683914, -38.052696]}, "properties": {"sector": "Cortinas de ciprés", "icono": "sector_cipres", "color": "#3F7D63"}}, {"type": "Feature", "geometry": {"type": "Point", "coordinates": [-57.683784, -38.052714]}, "properties": {"sector": "Cortinas de ciprés", "icono": "sector_cipres", "color": "#3F7D63"}}, {"type": "Feature", "geometry": {"type": "Point", "coordinates": [-57.68369, -38.052597]}, "properties": {"sector": "Cortinas de ciprés", "icono": "sector_cipres", "color": "#3F7D63"}}, {"type": "Feature", "geometry": {"type": "Point", "coordinates": [-57.683548, -38.052597]}, "properties": {"sector": "Cortinas de ciprés", "icono": "sector_cipres", "color": "#3F7D63"}}, {"type": "Feature", "geometry": {"type": "Point", "coordinates": [-57.683615, -38.052492]}, "properties": {"sector": "Cortinas de ciprés", "icono": "sector_cipres", "color": "#3F7D63"}}, {"type": "Feature", "geometry": {"type": "Point", "coordinates": [-57.679356, -38.059416]}, "properties": {"sector": "Pinar", "icono": "sector_pinar", "color": "#2E6B4F"}}, {"type": "Feature", "geometry": {"type": "Point", "coordinates": [-57.67943, -38.059329]}, "properties": {"sector": "Pinar", "icono": "sector_pinar", "color": "#2E6B4F"}}, {"type": "Feature", "geometry": {"type": "Point", "coordinates": [-57.679265, -38.059313]}, "properties": {"sector": "Pinar", "icono": "sector_pinar", "color": "#2E6B4F"}}, {"type": "Feature", "geometry": {"type": "Point", "coordinates": [-57.679505, -38.059206]}, "properties": {"sector": "Pinar", "icono": "sector_pinar", "color": "#2E6B4F"}}, {"type": "Feature", "geometry": {"type": "Point", "coordinates": [-57.679351, -38.059217]}, "properties": {"sector": "Pinar", "icono": "sector_pinar", "color": "#2E6B4F"}}, {"type": "Feature", "geometry": {"type": "Point", "coordinates": [-57.67957, -38.059099]}, "properties": {"sector": "Pinar", "icono": "sector_pinar", "color": "#2E6B4F"}}, {"type": "Feature", "geometry": {"type": "Point", "coordinates": [-57.67982, -38.058991]}, "properties": {"sector": "Pinar", "icono": "sector_pinar", "color": "#2E6B4F"}}, {"type": "Feature", "geometry": {"type": "Point", "coordinates": [-57.679653, -38.058983]}, "properties": {"sector": "Pinar", "icono": "sector_pinar", "color": "#2E6B4F"}}, {"type": "Feature", "geometry": {"type": "Point", "coordinates": [-57.679897, -38.058882]}, "properties": {"sector": "Pinar", "icono": "sector_pinar", "color": "#2E6B4F"}}, {"type": "Feature", "geometry": {"type": "Point", "coordinates": [-57.680128, -38.058754]}, "properties": {"sector": "Pinar", "icono": "sector_pinar", "color": "#2E6B4F"}}, {"type": "Feature", "geometry": {"type": "Point", "coordinates": [-57.679994, -38.058772]}, "properties": {"sector": "Pinar", "icono": "sector_pinar", "color": "#2E6B4F"}}, {"type": "Feature", "geometry": {"type": "Point", "coordinates": [-57.680232, -38.058677]}, "properties": {"sector": "Pinar", "icono": "sector_pinar", "color": "#2E6B4F"}}, {"type": "Feature", "geometry": {"type": "Point", "coordinates": [-57.680304, -38.058551]}, "properties": {"sector": "Pinar", "icono": "sector_pinar", "color": "#2E6B4F"}}, {"type": "Feature", "geometry": {"type": "Point", "coordinates": [-57.680566, -38.058451]}, "properties": {"sector": "Pinar", "icono": "sector_pinar", "color": "#2E6B4F"}}, {"type": "Feature", "geometry": {"type": "Point", "coordinates": [-57.680402, -38.058454]}, "properties": {"sector": "Pinar", "icono": "sector_pinar", "color": "#2E6B4F"}}, {"type": "Feature", "geometry": {"type": "Point", "coordinates": [-57.680598, -38.058343]}, "properties": {"sector": "Pinar", "icono": "sector_pinar", "color": "#2E6B4F"}}, {"type": "Feature", "geometry": {"type": "Point", "coordinates": [-57.68044, -38.058331]}, "properties": {"sector": "Pinar", "icono": "sector_pinar", "color": "#2E6B4F"}}, {"type": "Feature", "geometry": {"type": "Point", "coordinates": [-57.680682, -38.058224]}, "properties": {"sector": "Pinar", "icono": "sector_pinar", "color": "#2E6B4F"}}, {"type": "Feature", "geometry": {"type": "Point", "coordinates": [-57.680563, -38.058224]}, "properties": {"sector": "Pinar", "icono": "sector_pinar", "color": "#2E6B4F"}}, {"type": "Feature", "geometry": {"type": "Point", "coordinates": [-57.680631, -38.058097]}, "properties": {"sector": "Pinar", "icono": "sector_pinar", "color": "#2E6B4F"}}, {"type": "Feature", "geometry": {"type": "Point", "coordinates": [-57.678638, -38.058894]}, "properties": {"sector": "Pinar", "icono": "sector_pinar", "color": "#2E6B4F"}}, {"type": "Feature", "geometry": {"type": "Point", "coordinates": [-57.678467, -38.058881]}, "properties": {"sector": "Pinar", "icono": "sector_pinar", "color": "#2E6B4F"}}, {"type": "Feature", "geometry": {"type": "Point", "coordinates": [-57.678411, -38.058754]}, "properties": {"sector": "Pinar", "icono": "sector_pinar", "color": "#2E6B4F"}}, {"type": "Feature", "geometry": {"type": "Point", "coordinates": [-57.678315, -38.058662]}, "properties": {"sector": "Pinar", "icono": "sector_pinar", "color": "#2E6B4F"}}, {"type": "Feature", "geometry": {"type": "Point", "coordinates": [-57.678096, -38.058559]}, "properties": {"sector": "Pinar", "icono": "sector_pinar", "color": "#2E6B4F"}}, {"type": "Feature", "geometry": {"type": "Point", "coordinates": [-57.678008, -38.058436]}, "properties": {"sector": "Pinar", "icono": "sector_pinar", "color": "#2E6B4F"}}, {"type": "Feature", "geometry": {"type": "Point", "coordinates": [-57.67792, -38.058345]}, "properties": {"sector": "Pinar", "icono": "sector_pinar", "color": "#2E6B4F"}}, {"type": "Feature", "geometry": {"type": "Point", "coordinates": [-57.677728, -38.058325]}, "properties": {"sector": "Pinar", "icono": "sector_pinar", "color": "#2E6B4F"}}, {"type": "Feature", "geometry": {"type": "Point", "coordinates": [-57.677841, -38.058214]}, "properties": {"sector": "Pinar", "icono": "sector_pinar", "color": "#2E6B4F"}}, {"type": "Feature", "geometry": {"type": "Point", "coordinates": [-57.677687, -38.058219]}, "properties": {"sector": "Pinar", "icono": "sector_pinar", "color": "#2E6B4F"}}, {"type": "Feature", "geometry": {"type": "Point", "coordinates": [-57.677604, -38.058104]}, "properties": {"sector": "Pinar", "icono": "sector_pinar", "color": "#2E6B4F"}}, {"type": "Feature", "geometry": {"type": "Point", "coordinates": [-57.682104, -38.053478]}, "properties": {"sector": "Pinar", "icono": "sector_pinar", "color": "#2E6B4F"}}, {"type": "Feature", "geometry": {"type": "Point", "coordinates": [-57.681943, -38.053501]}, "properties": {"sector": "Pinar", "icono": "sector_pinar", "color": "#2E6B4F"}}, {"type": "Feature", "geometry": {"type": "Point", "coordinates": [-57.682052, -38.053381]}, "properties": {"sector": "Pinar", "icono": "sector_pinar", "color": "#2E6B4F"}}, {"type": "Feature", "geometry": {"type": "Point", "coordinates": [-57.682305, -38.053281]}, "properties": {"sector": "Pinar", "icono": "sector_pinar", "color": "#2E6B4F"}}, {"type": "Feature", "geometry": {"type": "Point", "coordinates": [-57.682115, -38.053293]}, "properties": {"sector": "Pinar", "icono": "sector_pinar", "color": "#2E6B4F"}}, {"type": "Feature", "geometry": {"type": "Point", "coordinates": [-57.682379, -38.053154]}, "properties": {"sector": "Pinar", "icono": "sector_pinar", "color": "#2E6B4F"}}, {"type": "Feature", "geometry": {"type": "Point", "coordinates": [-57.682881, -38.052886]}, "properties": {"sector": "Pinar", "icono": "sector_pinar", "color": "#2E6B4F"}}, {"type": "Feature", "geometry": {"type": "Point", "coordinates": [-57.682702, -38.052878]}, "properties": {"sector": "Pinar", "icono": "sector_pinar", "color": "#2E6B4F"}}, {"type": "Feature", "geometry": {"type": "Point", "coordinates": [-57.682957, -38.052761]}, "properties": {"sector": "Pinar", "icono": "sector_pinar", "color": "#2E6B4F"}}, {"type": "Feature", "geometry": {"type": "Point", "coordinates": [-57.683164, -38.052665]}, "properties": {"sector": "Pinar", "icono": "sector_pinar", "color": "#2E6B4F"}}, {"type": "Feature", "geometry": {"type": "Point", "coordinates": [-57.683005, -38.052663]}, "properties": {"sector": "Pinar", "icono": "sector_pinar", "color": "#2E6B4F"}}, {"type": "Feature", "geometry": {"type": "Point", "coordinates": [-57.683107, -38.052558]}, "properties": {"sector": "Pinar", "icono": "sector_pinar", "color": "#2E6B4F"}}, {"type": "Feature", "geometry": {"type": "Point", "coordinates": [-57.677533, -38.057838]}, "properties": {"sector": "Bosque de eucaliptos", "icono": "sector_eucaliptos", "color": "#7B9E5A"}}, {"type": "Feature", "geometry": {"type": "Point", "coordinates": [-57.677403, -38.057855]}, "properties": {"sector": "Bosque de eucaliptos", "icono": "sector_eucaliptos", "color": "#7B9E5A"}}, {"type": "Feature", "geometry": {"type": "Point", "coordinates": [-57.677468, -38.057742]}, "properties": {"sector": "Bosque de eucaliptos", "icono": "sector_eucaliptos", "color": "#7B9E5A"}}, {"type": "Feature", "geometry": {"type": "Point", "coordinates": [-57.677292, -38.057726]}, "properties": {"sector": "Bosque de eucaliptos", "icono": "sector_eucaliptos", "color": "#7B9E5A"}}, {"type": "Feature", "geometry": {"type": "Point", "coordinates": [-57.67738, -38.057616]}, "properties": {"sector": "Bosque de eucaliptos", "icono": "sector_eucaliptos", "color": "#7B9E5A"}}, {"type": "Feature", "geometry": {"type": "Point", "coordinates": [-57.677226, -38.05764]}, "properties": {"sector": "Bosque de eucaliptos", "icono": "sector_eucaliptos", "color": "#7B9E5A"}}, {"type": "Feature", "geometry": {"type": "Point", "coordinates": [-57.677301, -38.057527]}, "properties": {"sector": "Bosque de eucaliptos", "icono": "sector_eucaliptos", "color": "#7B9E5A"}}, {"type": "Feature", "geometry": {"type": "Point", "coordinates": [-57.677228, -38.05731]}, "properties": {"sector": "Pinar", "icono": "sector_pinar", "color": "#2E6B4F"}}, {"type": "Feature", "geometry": {"type": "Point", "coordinates": [-57.677087, -38.057272]}, "properties": {"sector": "Pinar", "icono": "sector_pinar", "color": "#2E6B4F"}}, {"type": "Feature", "geometry": {"type": "Point", "coordinates": [-57.677341, -38.05718]}, "properties": {"sector": "Pinar", "icono": "sector_pinar", "color": "#2E6B4F"}}, {"type": "Feature", "geometry": {"type": "Point", "coordinates": [-57.677171, -38.05717]}, "properties": {"sector": "Pinar", "icono": "sector_pinar", "color": "#2E6B4F"}}, {"type": "Feature", "geometry": {"type": "Point", "coordinates": [-57.677556, -38.057073]}, "properties": {"sector": "Pinar", "icono": "sector_pinar", "color": "#2E6B4F"}}, {"type": "Feature", "geometry": {"type": "Point", "coordinates": [-57.677394, -38.057074]}, "properties": {"sector": "Pinar", "icono": "sector_pinar", "color": "#2E6B4F"}}, {"type": "Feature", "geometry": {"type": "Point", "coordinates": [-57.67766, -38.056947]}, "properties": {"sector": "Pinar", "icono": "sector_pinar", "color": "#2E6B4F"}}, {"type": "Feature", "geometry": {"type": "Point", "coordinates": [-57.677477, -38.056954]}, "properties": {"sector": "Pinar", "icono": "sector_pinar", "color": "#2E6B4F"}}, {"type": "Feature", "geometry": {"type": "Point", "coordinates": [-57.677724, -38.056868]}, "properties": {"sector": "Pinar", "icono": "sector_pinar", "color": "#2E6B4F"}}, {"type": "Feature", "geometry": {"type": "Point", "coordinates": [-57.67755, -38.056839]}, "properties": {"sector": "Pinar", "icono": "sector_pinar", "color": "#2E6B4F"}}, {"type": "Feature", "geometry": {"type": "Point", "coordinates": [-57.67779, -38.056756]}, "properties": {"sector": "Pinar", "icono": "sector_pinar", "color": "#2E6B4F"}}, {"type": "Feature", "geometry": {"type": "Point", "coordinates": [-57.678188, -38.057768]}, "properties": {"sector": "Cedros", "icono": "sector_cedros", "color": "#6E7A34"}}, {"type": "Feature", "geometry": {"type": "Point", "coordinates": [-57.678046, -38.057788]}, "properties": {"sector": "Cedros", "icono": "sector_cedros", "color": "#6E7A34"}}, {"type": "Feature", "geometry": {"type": "Point", "coordinates": [-57.678115, -38.05768]}, "properties": {"sector": "Cedros", "icono": "sector_cedros", "color": "#6E7A34"}}, {"type": "Feature", "geometry": {"type": "Point", "coordinates": [-57.677943, -38.057658]}, "properties": {"sector": "Cedros", "icono": "sector_cedros", "color": "#6E7A34"}}, {"type": "Feature", "geometry": {"type": "Point", "coordinates": [-57.678051, -38.057555]}, "properties": {"sector": "Cedros", "icono": "sector_cedros", "color": "#6E7A34"}}, {"type": "Feature", "geometry": {"type": "Point", "coordinates": [-57.677889, -38.057561]}, "properties": {"sector": "Cedros", "icono": "sector_cedros", "color": "#6E7A34"}}, {"type": "Feature", "geometry": {"type": "Point", "coordinates": [-57.677957, -38.057451]}, "properties": {"sector": "Cedros", "icono": "sector_cedros", "color": "#6E7A34"}}, {"type": "Feature", "geometry": {"type": "Point", "coordinates": [-57.677775, -38.05746]}, "properties": {"sector": "Cedros", "icono": "sector_cedros", "color": "#6E7A34"}}, {"type": "Feature", "geometry": {"type": "Point", "coordinates": [-57.677862, -38.057355]}, "properties": {"sector": "Cedros", "icono": "sector_cedros", "color": "#6E7A34"}}]}